{"type": "FeatureCollection", "features": [ {"type": "Feature", "properties": {"norad_id": 39122, "name": "EUTELSAT 117 WEST A", "group": "eutelsat", "lat": 0.03028431851211893, "lon": 97.79291979906317, "alt_km": 35798.076699882964, "timestamp": "2025-12-13T08:49:15.364902+00:00", "meta": {"OBJECT_NAME": "EUTELSAT 117 WEST A", "OBJECT_ID": "2013-012A", "EPOCH": "2025-12-12T23:11:53.682720", "MEAN_MOTION": 1.00271753, "ECCENTRICITY": 0.00029089, "INCLINATION": 0.0159, "RA_OF_ASC_NODE": 16.0025, "ARG_OF_PERICENTER": 249.0463, "MEAN_ANOMALY": 48.0234, "EPHEMERIS_TYPE": 0, "CLASSIFICATION_TYPE": "U", "NORAD_CAT_ID": 39122, "ELEMENT_SET_NO": 999, "REV_AT_EPOCH": 4656, "BSTAR": 0, "MEAN_MOTION_DOT": 0, "MEAN_MOTION_DDOT": 0}, "tle": {"line1": "1 39122U 13012A   25346.96659355  .00000000  00000+0  00000+0 0  9990", "line2": "2 39122   0.0159  16.0025 0002908 249.0463  48.0234  1.00271753 46563"}}, "geometry": {"type": "Point", "coordinates": [97.79291979906317, 0.03028431851211893]}}, {"type": "Feature", "properties": {"norad_id": 39163, "name": "EUTELSAT 7B", "group": "eutelsat", "lat": -0.041176987117267284, "lon": -138.44590952525238, "alt_km": 35787.79246791184, "timestamp": "2025-12-13T08:49:15.364914+00:00", "meta": {"OBJECT_NAME": "EUTELSAT 7B", "OBJECT_ID": "2013-022A", "EPOCH": "2025-12-12T22:04:26.878656", "MEAN_MOTION": 1.00273132, "ECCENTRICITY": 0.00046396, "INCLINATION": 0.0741, "RA_OF_ASC_NODE": 21.8184, "ARG_OF_PERICENTER": 296.1656, "MEAN_ANOMALY": 101.9845, "EPHEMERIS_TYPE": 0, "CLASSIFICATION_TYPE": "U", "NORAD_CAT_ID": 39163, "ELEMENT_SET_NO": 999, "REV_AT_EPOCH": 4608, "BSTAR": 0, "MEAN_MOTION_DOT": 6.1e-07, "MEAN_MOTION_DDOT": 0}, "tle": {"line1": "1 39163U 13022A   25346.91975554  .00000061  00000+0  00000+0 0  9990", "line2": "2 39163   0.0741  21.8184 0004639 296.1656 101.9845  1.00273132 46082"}}, "geometry": {"type": "Point", "coordinates": [-138.44590952525238, -0.041176987117267284]}}, {"type": "Feature", "properties": {"norad_id": 39612, "name": "EXPRESS-AT1", "group": "eutelsat", "lat": -0.029505339236089462, "lon": -89.40523622686683, "alt_km": 35786.360718864664, "timestamp": "2025-12-13T08:49:15.364926+00:00", "meta": {"OBJECT_NAME": "EXPRESS-AT1", "OBJECT_ID": "2014-010A", "EPOCH": "2025-12-13T00:01:11.460576", "MEAN_MOTION": 1.00270472, "ECCENTRICITY": 5.47e-06, "INCLINATION": 0.0165, "RA_OF_ASC_NODE": 323.8593, "ARG_OF_PERICENTER": 232.3287, "MEAN_ANOMALY": 302.0376, "EPHEMERIS_TYPE": 0, "CLASSIFICATION_TYPE": "U", "NORAD_CAT_ID": 39612, "ELEMENT_SET_NO": 999, "REV_AT_EPOCH": 4295, "BSTAR": 0, "MEAN_MOTION_DOT": 0, "MEAN_MOTION_DDOT": 0}, "tle": {"line1": "1 39612U 14010A   25347.00082709  .00000000  00000+0  00000+0 0  9992", "line2": "2 39612   0.0165 323.8593 0000054 232.3287 302.0376  1.00270472 42958"}}, "geometry": {"type": "Point", "coordinates": [-89.40523622686683, -0.029505339236089462]}}, {"type": "Feature", "properties": {"norad_id": 39613, "name": "EXPRESS-AT2", "group": "eutelsat", "lat": 0.020925636684054102, "lon": -5.5233579205084515, "alt_km": 35783.487005801304, "timestamp": "2025-12-13T08:49:15.364939+00:00", "meta": {"OBJECT_NAME": "EXPRESS-AT2", "OBJECT_ID": "2014-010B", "EPOCH": "2025-12-12T22:42:19.017216", "MEAN_MOTION": 1.00270323, "ECCENTRICITY": 0.00014605, "INCLINATION": 0.0182, "RA_OF_ASC_NODE": 310.3146, "ARG_OF_PERICENTER": 344.0457, "MEAN_ANOMALY": 267.9614, "EPHEMERIS_TYPE": 0, "CLASSIFICATION_TYPE": "U", "NORAD_CAT_ID": 39613, "ELEMENT_SET_NO": 999, "REV_AT_EPOCH": 4263, "BSTAR": 0, "MEAN_MOTION_DOT": -2.69e-06, "MEAN_MOTION_DDOT": 0}, "tle": {"line1": "1 39613U 14010B   25346.94605344 -.00000269  00000+0  00000+0 0  9999", "line2": "2 39613   0.0182 310.3146 0001460 344.0457 267.9614  1.00270323 42639"}}, "geometry": {"type": "Point", "coordinates": [-5.5233579205084515, 0.020925636684054102]}}, {"type": "Feature", "properties": {"norad_id": 39773, "name": "EUTELSAT 3B", "group": "eutelsat", "lat": -0.061852353355627755, "lon": -142.30998499147503, "alt_km": 35767.57547772112, "timestamp": "2025-12-13T08:49:15.364955+00:00", "meta": {"OBJECT_NAME": "EUTELSAT 3B", "OBJECT_ID": "2014-030A", "EPOCH": "2025-12-12T22:03:19.485792", "MEAN_MOTION": 1.00270725, "ECCENTRICITY": 0.00045579, "INCLINATION": 0.0608, "RA_OF_ASC_NODE": 349.8245, "ARG_OF_PERICENTER": 240.4306, "MEAN_ANOMALY": 185.5307, "EPHEMERIS_TYPE": 0, "CLASSIFICATION_TYPE": "U", "NORAD_CAT_ID": 39773, "ELEMENT_SET_NO": 999, "REV_AT_EPOCH": 4219, "BSTAR": 0, "MEAN_MOTION_DOT": 3.2e-07, "MEAN_MOTION_DDOT": 0}, "tle": {"line1": "1 39773U 14030A   25346.91897553  .00000032  00000+0  00000+0 0  9997", "line2": "2 39773   0.0608 349.8245 0004557 240.4306 185.5307  1.00270725 42199"}}, "geometry": {"type": "Point", "coordinates": [-142.30998499147503, -0.061852353355627755]}}, {"type": "Feature", "properties": {"norad_id": 40425, "name": "EUTELSAT 115 WEST B", "group": "eutelsat", "lat": 0.0006611055130296604, "lon": 99.71922178496477, "alt_km": 35785.314522932305, "timestamp": "2025-12-13T08:49:15.364967+00:00", "meta": {"OBJECT_NAME": "EUTELSAT 115 WEST B", "OBJECT_ID": "2015-010B", "EPOCH": "2025-12-12T23:12:23.635008", "MEAN_MOTION": 1.00273842, "ECCENTRICITY": 7.22e-06, "INCLINATION": 0.0199, "RA_OF_ASC_NODE": 163.8927, "ARG_OF_PERICENTER": 349.5019, "MEAN_ANOMALY": 161.7193, "EPHEMERIS_TYPE": 0, "CLASSIFICATION_TYPE": "U", "NORAD_CAT_ID": 40425, "ELEMENT_SET_NO": 999, "REV_AT_EPOCH": 3952, "BSTAR": 0, "MEAN_MOTION_DOT": -1.3e-07, "MEAN_MOTION_DDOT": 0}, "tle": {"line1": "1 40425U 15010B   25346.96694022 -.00000013  00000+0  00000+0 0  9993", "line2": "2 40425   0.0199 163.8927 0000072 349.5019 161.7193  1.00273842 39526"}}, "geometry": {"type": "Point", "coordinates": [99.71922178496477, 0.0006611055130296604]}}, {"type": "Feature", "properties": {"norad_id": 40875, "name": "EUTELSAT 8 WEST B", "group": "eutelsat", "lat": -0.03396484213302659, "lon": -153.41833520859979, "alt_km": 35776.171899216475, "timestamp": "2025-12-13T08:49:15.364979+00:00", "meta": {"OBJECT_NAME": "EUTELSAT 8 WEST B", "OBJECT_ID": "2015-039B", "EPOCH": "2025-12-12T23:42:50.717664", "MEAN_MOTION": 1.00271675, "ECCENTRICITY": 0.00042195, "INCLINATION": 0.0658, "RA_OF_ASC_NODE": 8.7404, "ARG_OF_PERICENTER": 254.0731, "MEAN_ANOMALY": 166.8393, "EPHEMERIS_TYPE": 0, "CLASSIFICATION_TYPE": "U", "NORAD_CAT_ID": 40875, "ELEMENT_SET_NO": 999, "REV_AT_EPOCH": 3779, "BSTAR": 0, "MEAN_MOTION_DOT": -5.3e-07, "MEAN_MOTION_DDOT": 0}, "tle": {"line1": "1 40875U 15039B   25346.98808701 -.00000053  00000+0  00000+0 0  9990", "line2": "2 40875   0.0658   8.7404 0004219 254.0731 166.8393  1.00271675 37797"}}, "geometry": {"type": "Point", "coordinates": [-153.41833520859979, -0.03396484213302659]}}, {"type": "Feature", "properties": {"norad_id": 41310, "name": "EUTELSAT 9B", "group": "eutelsat", "lat": -0.0018752209468193809, "lon": -136.43230351808063, "alt_km": 35773.09089315142, "timestamp": "2025-12-13T08:49:15.364991+00:00", "meta": {"OBJECT_NAME": "EUTELSAT 9B", "OBJECT_ID": "2016-005A", "EPOCH": "2025-12-12T22:05:04.319232", "MEAN_MOTION": 1.00270124, "ECCENTRICITY": 0.00046412, "INCLINATION": 0.0455, "RA_OF_ASC_NODE": 64.5005, "ARG_OF_PERICENTER": 206.0746, "MEAN_ANOMALY": 151.5545, "EPHEMERIS_TYPE": 0, "CLASSIFICATION_TYPE": "U", "NORAD_CAT_ID": 41310, "ELEMENT_SET_NO": 999, "REV_AT_EPOCH": 3624, "BSTAR": 0, "MEAN_MOTION_DOT": 7.4e-07, "MEAN_MOTION_DDOT": 0}, "tle": {"line1": "1 41310U 16005A   25346.92018888  .00000074  00000+0  00000+0 0  9994", "line2": "2 41310   0.0455  64.5005 0004641 206.0746 151.5545  1.00270124 36243"}}, "geometry": {"type": "Point", "coordinates": [-136.43230351808063, -0.0018752209468193809]}}, {"type": "Feature", "properties": {"norad_id": 41382, "name": "EUTELSAT 65 WEST A", "group": "eutelsat", "lat": 0.040010417049924786, "lon": 149.38452837339483, "alt_km": 35791.426328130445, "timestamp": "2025-12-13T08:49:15.365003+00:00", "meta": {"OBJECT_NAME": "EUTELSAT 65 WEST A", "OBJECT_ID": "2016-014A", "EPOCH": "2025-12-12T23:26:37.272192", "MEAN_MOTION": 1.00271881, "ECCENTRICITY": 0.00024973, "INCLINATION": 0.0524, "RA_OF_ASC_NODE": 14.9138, "ARG_OF_PERICENTER": 254.8827, "MEAN_ANOMALY": 98.5763, "EPHEMERIS_TYPE": 0, "CLASSIFICATION_TYPE": "U", "NORAD_CAT_ID": 41382, "ELEMENT_SET_NO": 999, "REV_AT_EPOCH": 3566, "BSTAR": 0, "MEAN_MOTION_DOT": -2.64e-06, "MEAN_MOTION_DDOT": 0}, "tle": {"line1": "1 41382U 16014A   25346.97682028 -.00000264  00000+0  00000+0 0  9993", "line2": "2 41382   0.0524  14.9138 0002497 254.8827  98.5763  1.00271881 35661"}}, "geometry": {"type": "Point", "coordinates": [149.38452837339483, 0.040010417049924786]}}, {"type": "Feature", "properties": {"norad_id": 41589, "name": "EUTELSAT 117 WEST B", "group": "eutelsat", "lat": -0.006804166341768017, "lon": 97.63067225295818, "alt_km": 35785.163911988304, "timestamp": "2025-12-13T08:49:15.365016+00:00", "meta": {"OBJECT_NAME": "EUTELSAT 117 WEST B", "OBJECT_ID": "2016-038B", "EPOCH": "2025-12-12T23:11:46.195296", "MEAN_MOTION": 1.00271866, "ECCENTRICITY": 2.512e-05, "INCLINATION": 0.011, "RA_OF_ASC_NODE": 153.7448, "ARG_OF_PERICENTER": 269.9053, "MEAN_ANOMALY": 249.2194, "EPHEMERIS_TYPE": 0, "CLASSIFICATION_TYPE": "U", "NORAD_CAT_ID": 41589, "ELEMENT_SET_NO": 999, "REV_AT_EPOCH": 3479, "BSTAR": 0, "MEAN_MOTION_DOT": 1e-08, "MEAN_MOTION_DDOT": 0}, "tle": {"line1": "1 41589U 16038B   25346.96650689  .00000001  00000+0  00000+0 0  9993", "line2": "2 41589   0.0110 153.7448 0000251 269.9053 249.2194  1.00271866 34790"}}, "geometry": {"type": "Point", "coordinates": [97.63067225295818, -0.006804166341768017]}}]}